{
  "type": "FeatureCollection",
  "features": [
    {
      "type": "Feature",
      "properties": {
        "norad_id": 66718,
        "name": "FLOCK 4H-15",
        "group": "last-30-days",
        "lat": -8.479514940890985,
        "lon": -109.88334307060792,
        "alt_km": 517.7326814315029,
        "timestamp": "2025-12-25T16:53:13.371759+00:00",
        "meta_object_name": "FLOCK 4H-15",
        "meta_object_id": "2025-276BE",
        "meta_epoch": "2025-12-25T03:23:43.143648",
        "meta_mean_motion": 15.17134211,
        "meta_eccentricity": 0.00030741,
        "meta_inclination": 97.4417,
        "meta_ra_of_asc_node": 70.6812,
        "meta_arg_of_pericenter": 256.5047,
        "meta_mean_anomaly": 103.5844,
        "meta_ephemeris_type": 0,
        "meta_classification_type": "U",
        "meta_norad_cat_id": 66718,
        "meta_element_set_no": 999,
        "meta_rev_at_epoch": 400,
        "meta_bstar": 0.00051689803,
        "meta_mean_motion_dot": 0.00010194,
        "meta_mean_motion_ddot": 0,
        "tle_line1": "1 66718U 25276BE  25359.14147157  .00010194  00000+0  51690-3 0  9992",
        "tle_line2": "2 66718  97.4417  70.6812 0003074 256.5047 103.5844 15.17134211  4004"
      },
      "geometry": {
        "type": "Point",
        "coordinates": [
          -109.88334307060792,
          -8.479514940890985
        ]
      }
    },
    {
      "type": "Feature",
      "properties": {
        "norad_id": 66719,
        "name": "FLOCK 4H-16",
        "group": "last-30-days",
        "lat": -18.74361685662031,
        "lon": -111.29925412750553,
        "alt_km": 517.6429877142755,
        "timestamp": "2025-12-25T16:53:13.371769+00:00",
        "meta_object_name": "FLOCK 4H-16",
        "meta_object_id": "2025-276BF",
        "meta_epoch": "2025-12-25T08:00:01.000224",
        "meta_mean_motion": 15.17275496,
        "meta_eccentricity": 0.00032585,
        "meta_inclination": 97.4432,
        "meta_ra_of_asc_node": 70.8796,
        "meta_arg_of_pericenter": 240.1784,
        "meta_mean_anomaly": 97.396,
        "meta_ephemeris_type": 0,
        "meta_classification_type": "U",
        "meta_norad_cat_id": 66719,
        "meta_element_set_no": 999,
        "meta_rev_at_epoch": 345,
        "meta_bstar": -0.0026363765,
        "meta_mean_motion_dot": -0.00052161,
        "meta_mean_motion_ddot": 0,
        "tle_line1": "1 66719U 25276BF  25359.33334491 -.00052161  00000+0 -26364-2 0  9994",
        "tle_line2": "2 66719  97.4432  70.8796 0003258 240.1784  97.3960 15.17275496  3454"
      },
      "geometry": {
        "type": "Point",
        "coordinates": [
          -111.29925412750553,
          -18.74361685662031
        ]
      }
    },
    {
      "type": "Feature",
      "properties": {
        "norad_id": 66720,
        "name": "FLOCK 4H-17",
        "group": "last-30-days",
        "lat": -79.21133914403156,
        "lon": 114.60289361604188,
        "alt_km": 519.2376707258582,
        "timestamp": "2025-12-25T16:53:13.371783+00:00",
        "meta_object_name": "FLOCK 4H-17",
        "meta_object_id": "2025-276BG",
        "meta_epoch": "2025-12-25T06:10:30.840096",
        "meta_mean_motion": 15.18097024,
        "meta_eccentricity": 0.00029098,
        "meta_inclination": 97.4436,
        "meta_ra_of_asc_node": 70.8407,
        "meta_arg_of_pericenter": 180.339,
        "meta_mean_anomaly": 179.7842,
        "meta_ephemeris_type": 0,
        "meta_classification_type": "U",
        "meta_norad_cat_id": 66720,
        "meta_element_set_no": 999,
        "meta_rev_at_epoch": 402,
        "meta_bstar": 0.0005184253,
        "meta_mean_motion_dot": 0.00010511,
        "meta_mean_motion_ddot": 0,
        "tle_line1": "1 66720U 25276BG  25359.25730139  .00010511  00000+0  51843-3 0  9998",
        "tle_line2": "2 66720  97.4436  70.8407 0002909 180.3390 179.7842 15.18097024  4027"
      },
      "geometry": {
        "type": "Point",
        "coordinates": [
          114.60289361604188,
          -79.21133914403156
        ]
      }
    },
    {
      "type": "Feature",
      "properties": {
        "norad_id": 66721,
        "name": "FLOCK 4H-18",
        "group": "last-30-days",
        "lat": -11.775711070754706,
        "lon": -110.34212078542188,
        "alt_km": 518.4883647880197,
        "timestamp": "2025-12-25T16:53:13.371793+00:00",
        "meta_object_name": "FLOCK 4H-18",
        "meta_object_id": "2025-276BH",
        "meta_epoch": "2025-12-25T03:22:51.760704",
        "meta_mean_motion": 15.17168057,
        "meta_eccentricity": 0.00024414,
        "meta_inclination": 97.4377,
        "meta_ra_of_asc_node": 70.6661,
        "meta_arg_of_pericenter": 271.3614,
        "meta_mean_anomaly": 88.734,
        "meta_ephemeris_type": 0,
        "meta_classification_type": "U",
        "meta_norad_cat_id": 66721,
        "meta_element_set_no": 999,
        "meta_rev_at_epoch": 400,
        "meta_bstar": 0.00051903977,
        "meta_mean_motion_dot": 0.00010246,
        "meta_mean_motion_ddot": 0,
        "tle_line1": "1 66721U 25276BH  25359.14087686  .00010246  00000+0  51904-3 0  9992",
        "tle_line2": "2 66721  97.4377  70.6661 0002441 271.3614  88.7340 15.17168057  4007"
      },
      "geometry": {
        "type": "Point",
        "coordinates": [
          -110.34212078542188,
          -11.775711070754706
        ]
      }
    },
    {
      "type": "Feature",
      "properties": {
        "norad_id": 66722,
        "name": "FLOCK 4H-19",
        "group": "last-30-days",
        "lat": -63.840116163359035,
        "lon": 86.68912666171482,
        "alt_km": 519.6861475605956,
        "timestamp": "2025-12-25T16:53:13.371803+00:00",
        "meta_object_name": "FLOCK 4H-19",
        "meta_object_id": "2025-276BJ",
        "meta_epoch": "2025-12-25T06:06:01.458720",
        "meta_mean_motion": 15.18302236,
        "meta_eccentricity": 0.00025742,
        "meta_inclination": 97.4382,
        "meta_ra_of_asc_node": 70.8221,
        "meta_arg_of_pericenter": 147.422,
        "meta_mean_anomaly": 212.7173,
        "meta_ephemeris_type": 0,
        "meta_classification_type": "U",
        "meta_norad_cat_id": 66722,
        "meta_element_set_no": 999,
        "meta_rev_at_epoch": 331,
        "meta_bstar": 0.0008102627,
        "meta_mean_motion_dot": 0.00016576,
        "meta_mean_motion_ddot": 0,
        "tle_line1": "1 66722U 25276BJ  25359.25418355  .00016576  00000+0  81026-3 0  9996",
        "tle_line2": "2 66722  97.4382  70.8221 0002574 147.4220 212.7173 15.18302236  3317"
      },
      "geometry": {
        "type": "Point",
        "coordinates": [
          86.68912666171482,
          -63.840116163359035
        ]
      }
    },
    {
      "type": "Feature",
      "properties": {
        "norad_id": 66723,
        "name": "FLOCK 4H-20",
        "group": "last-30-days",
        "lat": -60.041308351014166,
        "lon": 84.38780784401933,
        "alt_km": 519.5507506500571,
        "timestamp": "2025-12-25T16:53:13.371813+00:00",
        "meta_object_name": "FLOCK 4H-20",
        "meta_object_id": "2025-276BK",
        "meta_epoch": "2025-12-25T06:04:59.897856",
        "meta_mean_motion": 15.18344359,
        "meta_eccentricity": 0.00030383,
        "meta_inclination": 97.4418,
        "meta_ra_of_asc_node": 70.8377,
        "meta_arg_of_pericenter": 162.4257,
        "meta_mean_anomaly": 197.7083,
        "meta_ephemeris_type": 0,
        "meta_classification_type": "U",
        "meta_norad_cat_id": 66723,
        "meta_element_set_no": 999,
        "meta_rev_at_epoch": 327,
        "meta_bstar": 0.00057205612,
        "meta_mean_motion_dot": 0.0001169,
        "meta_mean_motion_ddot": 0,
        "tle_line1": "1 66723U 25276BK  25359.25347104  .00011690  00000+0  57206-3 0  9995",
        "tle_line2": "2 66723  97.4418  70.8377 0003038 162.4257 197.7083 15.18344359  3272"
      },
      "geometry": {
        "type": "Point",
        "coordinates": [
          84.38780784401933,
          -60.041308351014166
        ]
      }
    },
    {
      "type": "Feature",
      "properties": {
        "norad_id": 66724,
        "name": "FLOCK 4H-21",
        "group": "last-30-days",
        "lat": -56.6805546683957,
        "lon": 82.73039715701265,
        "alt_km": 519.4497895797422,
        "timestamp": "2025-12-25T16:53:13.371823+00:00",
        "meta_object_name": "FLOCK 4H-21",
        "meta_object_id": "2025-276BL",
        "meta_epoch": "2025-12-25T06:04:06.048192",
        "meta_mean_motion": 15.18390959,
        "meta_eccentricity": 0.00029253,
        "meta_inclination": 97.4384,
        "meta_ra_of_asc_node": 70.8233,
        "meta_arg_of_pericenter": 158.7136,
        "meta_mean_anomaly": 201.422,
        "meta_ephemeris_type": 0,
        "meta_classification_type": "U",
        "meta_norad_cat_id": 66724,
        "meta_element_set_no": 999,
        "meta_rev_at_epoch": 327,
        "meta_bstar": 0.00048185892,
        "meta_mean_motion_dot": 9.847e-05,
        "meta_mean_motion_ddot": 0,
        "tle_line1": "1 66724U 25276BL  25359.25284778  .00009847  00000+0  48186-3 0  9991",
        "tle_line2": "2 66724  97.4384  70.8233 0002925 158.7136 201.4220 15.18390959  3277"
      },
      "geometry": {
        "type": "Point",
        "coordinates": [
          82.73039715701265,
          -56.6805546683957
        ]
      }
    }
  ]
}